#dP2023 10 25  0  0  0.00000000      96 __u+U IGS20 FIT  IAC
## 2285 259200.00000000   900.00000000 60242 0.0000000000000
+  119   C06C07C08C09C10C11C12C13C14C16C19C20C21C22C23C24C25
+        C26C27C28C29C30C32C33C34C35C36C37C38C39C40C41C42C43
+        C44C45C46E02E03E04E05E07E08E09E10E11E12E13E14E15E19
+        E21E24E25E26E27E30E31E33E34E36G01G02G03G04G05G06G07
+        G08G09G10G11G12G13G14G15G16G17G18G19G20G21G22G23G24
+        G25G26G27G28G29G30G31G32J02J03J04R01R02R03R04R05R07
+        R08R09R11R12R13R14R15R16R17R18R19R20R21R22R24R25R26
++         9  7  9  9  7  8  6  9  8  9  5  7  7  6  7  6  7
++         5  9  6  5  7  5  6  6  5  7  6  9 10  8  7  6  7
++         6  6  9  6  7  6  7  6  7  7  7  6  7  5  6  6  7
++         6  6  7  6  5  6  6  6  6  7  6  6  6  6  6  6  5
++         5  6  7  7  6  6  6  7  6  4  7  5  6  7  5  6  6
++         6  8  6  6  6  6  6  7  7  8  6  7  6  6  6  7  5
++         5  6  6  8  6  6  5  5  7  6  7  8  8  6  8  8  7
%c M  cc GPS ccc cccc cccc cccc cccc ccccc ccccc ccccc ccccc
%c cc cc ccc ccc cccc cccc cccc cccc ccccc ccccc ccccc ccccc
%f  0.0000000  0.000000000  0.00000000000  0.000000000000000
%f  0.0000000  0.000000000  0.00000000000  0.000000000000000
%i    0    0    0    0      0      0      0      0         0
%i    0    0    0    0      0      0      0      0         0
/* INFORMATION & ANALYSIS CENTER (IAC)      ULTRA-RAPID DATA
/* S/V CLOCKS ARE ALIGNED TO GNSS TIME                      
/* G:C1WC2W R:C1PC2P E:C1XC5X C:C2IC6I J:C1CC2S             
/* PCV:IGS20_2280 OL/AL:FES2004  NONE     YN ORB:CoN CLK:CoN
*  2023 10 25 15 45  0.00000000
PC06  -4366.590219  39415.148861 -13845.100816     69.981582
PC07  -9494.799719  25958.885693  31922.174921   -214.149153
PC08 -20462.874668  31571.152274 -19274.449911    277.568147
PC09    112.216609  41415.726984  -5595.920898     -3.869036
PC10    504.921282  28132.609723  31809.566542      6.547956
PC11  17654.549579   7461.944069 -20216.859676    222.128777
PC12  14273.236359  23278.742858  -5747.953949    883.774004
PC13 -14246.700121  32070.101071 -23445.025186    372.951995
PC14  27817.146886   2546.338280   -108.429752    655.092158
PC16  -7241.485477  37067.835366 -18170.972828   -142.962377
PC19 -26119.966669   3793.069757  -9024.623135   -973.304520
PC20 -25739.169094  -7548.687505   7659.063573    173.604688
PC21   9698.103777  15345.486226 -21193.751303   -969.125101
PC22 -11470.035064  13610.858258 -21499.368559   -251.935824
PC23  15301.034159 -23296.266908  -1285.317808   -836.111768
PC24  14330.968730   7937.682268  22577.003653    530.112806
PC25  20584.418052 -12084.788766  14428.417082    240.776227
PC26    579.793819  21728.691474  17504.230733   -196.773823
PC27  -9684.484504 -26042.320642  -2644.784249    218.582796
PC28   3074.888404 -21965.834610 -16922.032783    164.637053
PC29 -15821.556421   3860.624780  22659.770839    192.500983
PC30 -18458.115834 -16170.850607  13298.859460     -7.119889
PC32  -9655.591280 -15304.744373  21247.530663   -531.253298
PC33  26156.568487  -3901.252868   8919.025980   -950.429238
PC34  18695.762284  14864.641364 -14426.245081    288.890698
PC35  -2241.358536  22133.434406  16821.488386    517.515216
PC36 -20850.028767  10851.494732 -15031.197156   -163.710083
PC37    518.240968 -22060.247829 -17056.288456   -864.430634
PC38 -24961.506054  32255.704853 -11030.725892    113.443676
PC39  -8497.782032  34365.976892 -22687.567150     -5.383187
PC40 -13855.413620  19396.874192  34782.930299    -41.455366
PC41  12238.854416 -13450.316503  21212.615041   -872.006376
PC42  25063.641990   8344.077893  -8992.925919   -513.640800
PC43  16307.616881  -2928.324098 -22458.624569     45.479601
PC44  10540.338150  25672.133774   2789.762132    272.542867
PC45 -15025.421136  23461.461638   1837.927123    -39.654136
PC46 -15009.977852  -6661.760167 -22570.075906    -94.603151
PE02 -21667.146017  -5696.234987 -19355.525132     72.929234
PE03 -24748.492077 -15744.615873  -3957.051537    -68.095761
PE04  22106.552637   -281.465607  19680.100535   -242.377341
PE05 -13028.496281 -22587.426898  14006.106523     30.898170
PE07  -6815.875462  15990.065143 -23962.346897    -84.229880
PE08 -22302.397167   -251.049855 -19465.280284   -166.840848
PE09   6862.722988 -15782.374307  24075.837277   -204.073853
PE10  14011.208029 -19264.851692 -17564.155797   -573.845150
PE11   9385.055828 -26710.318879  -8651.208250   3135.089684
PE12  16227.355857  -9649.352307 -22799.594975   -750.619260
PE13  -9705.633159  26359.528408   9347.719330    -19.629677
PE14  18663.090791  -9436.046024 -23090.493190    378.816459
PE15 -16193.084821   9147.066465  23037.369490    -64.085586
PE19  23906.223826  17378.456987   1573.729091  -1351.561892
PE21   3557.634723  16569.013143  24271.389725   -560.527319
PE24  17967.036623 -18214.192131 -14876.832524   -395.213780
PE25  -3151.946589 -16699.016967 -24227.229520     -3.735458
PE26   2842.495110  27650.574321 -10185.463582    261.627773
PE27 -17482.090868  18362.306152  15291.271196   -183.394718
PE30 -28063.728968   8968.820638  -2952.184957   -608.518771
PE31  27976.264103  -9304.348141   2609.423931     -8.561074
PE33  12858.551785  13820.151464 -22799.347110      0.977776
PE34 -13137.553242 -13127.432161  23042.362774    -74.326761
PE36  -2366.287197 -27896.144551   9612.660948   -134.845842
PG01 -13549.521159  15157.131253  16558.882824    163.407762
PG02 -14812.940354   8865.298928  20639.678339   -537.547782
PG03 -22891.943886  12503.186684  -4833.697744    -57.000035
PG04 -14170.029066   7338.620365 -21243.769106    194.478076
PG05  24636.987384  -4043.625440  -9381.230940   -147.862086
PG06   6843.478080  20562.154560 -15225.334471    522.437050
PG07  -5248.181487  25653.494309  -1962.382102     30.914759
PG08 -20809.884425   -865.375725  16636.844408   -148.884079
PG09  -4270.965553  15517.768408 -21209.314341    -22.268325
PG10  -5084.494291 -13966.619478  22193.091096    -58.759618
PG11  13106.782464   9170.668215 -21192.142928   -431.121743
PG12  24453.767661  -9913.682385  -2939.335842   -439.791693
PG13  21313.884927  11241.666621  11207.468366    588.001552
PG14    951.487183  15907.264857  21250.581772    224.306000
PG15  20297.935739  -2452.460802  16586.559121     90.598269
PG16 -23128.233339  -2865.038653 -13467.046473   -433.325555
PG17   9428.747461  20972.129502  13620.457656    723.711847
PG18   4734.363072 -26025.766424   -573.114174   -459.621758
PG19  16197.668921  20651.346842   4944.202811    389.829018
PG20  18596.221714   4027.398293 -18409.549359    405.003294
PG21 -15351.669891   4252.722579  21631.456987    145.929747
PG22   7871.463287  13542.749638  21875.007543     96.224543
PG23   8784.741845 -17170.788054  18187.325806     88.193672
PG24  14593.633335 -10689.150963  18918.495572   -355.114282
PG25  15563.923829 -16831.334347 -13499.277955    474.393290
PG26 -16209.614337  -8285.477947 -19581.229604    221.013092
PG27 -22845.003545 -12278.731255   6411.438658    -60.439007
PG28  -6918.114278 -21888.406795 -13386.103974    -32.299242
PG29   5528.667645 -14718.173988 -21434.321578   -610.185174
PG30   1760.678495  25293.837351   7563.544600   -475.075796
PG31 -11583.572632 -13970.668770 -19445.703865   -225.051178
PG32 -14189.649779 -20170.403302  10310.848740   -577.439417
PJ02 -30364.429524  26844.271061  16852.647906     -6.346174
PJ03 -27050.539492  25705.399411  24731.954407     -6.120421
PJ04 -30711.975710  19975.649145 -15751.010146     71.548275
PR01 -12497.057400 -12259.177184  18544.879721     68.410777
PR02 -23888.211502  -8484.330893   3204.784959    -22.369691
PR03 -21529.571407    671.391989 -13677.689120     87.753294
PR04  -7348.557590   8876.878953 -22736.523152    208.325408
PR05  10681.900035  12533.723060 -19463.308276    121.185006
PR07  20955.149696  -1199.991245  14485.894520     67.656228
PR08   7050.421648  -9164.530928  22784.455459    -73.067087
PR09  13824.383734    956.276969  21451.896613    149.593823
PR11  15279.794560 -19493.875055  -6121.844674   -208.722837
PR12    721.036482 -14732.074810 -20781.559085     32.728261
PR13 -12156.486166  -2888.354479 -22251.635752    -40.568548
PR14 -19629.294838  12918.989031  -9888.353428     25.466834
PR15 -14609.123364  19521.497244   7506.052388     85.118355
PR16   -951.843786  14808.102710  20748.053112     20.009523
PR17  -9555.563079   5194.174244  23089.961512     28.946834
PR18  -2456.544852  20025.687416  15601.814521    108.641395
PR19   4475.306913  25069.842042   1582.540705   -252.174394
PR20  11029.877221  14721.385756 -17642.410818   -102.412873
PR21   9279.364790  -5864.353550 -23016.492986    -48.282014
PR22   2786.073865 -20687.945390 -14634.953851     90.361220
PR24 -12013.045444 -13648.101869  17901.760104    -29.601389
PR25  10081.809459  -4762.968056 -22931.523801     -6.240383
PR26   7614.976244  -8964.864003  22650.183716    -19.358831
EOF
